STARLINK-31561          
1 59352U 24060E   26068.53227136 -.00000079  00000+0  66345-5 0  9992
2 59352  42.9985 260.3254 0000666 172.8342 187.2519 15.27576343110042
YAOGAN-43 01D           
1 60461U 24148D   26068.43560480  .00010676  00000+0  37766-3 0  9999
2 60461  35.0010  61.7102 0002556 326.2473  33.8080 15.28369377 87008
